[Satellite]
VERSION=1.1
NAME=IRIDIUM 45
NICKNAME=IRIDIUM 45
TLE1=1 25104U 97082A   22342.46477430  .00006872  00000+0  49475-3 0  9990
TLE2=2 25104  86.3783 120.3643 0201443  81.4075 280.9917 14.89033617313664
STATUS=2
